[{"OBJECT_NAME":"COSMOS 2524","OBJECT_ID":"2017-076A","EPOCH":"2026-03-09T23:23:35.640384","MEAN_MOTION":13.97416908,"ECCENTRICITY":0.00095468,"INCLINATION":67.1447,"RA_OF_ASC_NODE":73.9471,"ARG_OF_PERICENTER":248.4451,"MEAN_ANOMALY":111.5616,"EPHEMERIS_TYPE":0,"CLASSIFICATION_TYPE":"U","NORAD_CAT_ID":43032,"ELEMENT_SET_NO":999,"REV_AT_EPOCH":42174,"BSTAR":0.00037957358,"MEAN_MOTION_DOT":4.59e-6,"MEAN_MOTION_DDOT":0},{"OBJECT_NAME":"SL-3 R\/B","OBJECT_ID":"1974-025B","EPOCH":"2026-03-09T15:24:09.844704","MEAN_MOTION":14.07078166,"ECCENTRICITY":0.0056304,"INCLINATION":81.2406,"RA_OF_ASC_NODE":109.291,"ARG_OF_PERICENTER":265.4008,"MEAN_ANOMALY":94.0729,"EPHEMERIS_TYPE":0,"CLASSIFICATION_TYPE":"U","NORAD_CAT_ID":7275,"ELEMENT_SET_NO":999,"REV_AT_EPOCH":66119,"BSTAR":0.0001228,"MEAN_MOTION_DOT":2.2e-6,"MEAN_MOTION_DDOT":0}]
